STARLINK-2666
1 28666C 21044AE  21325.12949911  .00000166  00000-0  11136-4 0  3252
2 28666  53.0545 317.6392 0001684  63.6046 337.9415 15.06393168    14
